NORAD_CAT_ID,OBJECT_NAME,OBJECT_TYPE,EPOCH,MEAN_MOTION,ECCENTRICITY,INCLINATION,RA_OF_ASC_NODE,ARG_OF_PERICENTER,MEAN_ANOMALY,BSTAR,MEAN_MOTION_DOT,MEAN_MOTION_DDOT,TLE_LINE0,TLE_LINE1,TLE_LINE2,SEMIMAJOR_AXIS,PERIOD,APOGEE,PERIGEE,DECAYED
53746.0,STARLINK-4589,PAYLOAD,2024-08-12 19:00:13,15.08972984,0.0003081,53.2154,320.4924,88.9085,271.226,0.00519,0.000836,0.0,0 STARLINK-4589,1 53746U 22107AY  24225.79182266  .00083600  00000-0  51900-2 0  9997,2 53746  53.2154 320.4924 0003081  88.9085 271.2260 15.08972984107956,6917.474,95.429,541.47,537.208,0.0
53746.0,STARLINK-4589,PAYLOAD,2024-08-12 23:46:23,15.08858858,0.0001456,53.2163,319.6055,83.7483,276.3675,-0.0016344,-0.00026219,0.0,0 STARLINK-4589,1 53746U 22107AY  24225.99054850 -.00026219  00000-0 -16344-2 0  9994,2 53746  53.2163 319.6055 0001456  83.7483 276.3675 15.08858858107207,6917.823,95.436,540.695,538.681,0.0
53746.0,STARLINK-4589,PAYLOAD,2024-08-13 12:29:30,15.08775386,0.0002569,53.213,317.227,87.7989,272.3297,-0.00078257,-0.000127,0.0,0 STARLINK-4589,1 53746U 22107AY  24226.52049562 -.00012700  00000-0 -78257-3 0  9990,2 53746  53.2130 317.2270 0002569  87.7989 272.3297 15.08775386107283,6918.078,95.442,541.72,538.166,0.0
53746.0,STARLINK-4589,PAYLOAD,2024-08-13 14:04:54,15.08757349,0.0001664,53.2138,316.9308,88.92,271.1983,0.00013084,1.79e-05,0.0,0 STARLINK-4589,1 53746U 22107AY  24226.58674284  .00001790  00000-0  13084-3 0  9993,2 53746  53.2138 316.9308 0001664  88.9200 271.1983 15.08757349107292,6918.133,95.443,541.149,538.847,0.0
53746.0,STARLINK-4589,PAYLOAD,2024-08-13 23:37:14,15.08791592,0.0001343,53.2164,315.1444,96.6159,263.4986,0.00067044,0.00010384,0.0,0 STARLINK-4589,1 53746U 22107AY  24226.98419234  .00010384  00000-0  67044-3 0  9993,2 53746  53.2164 315.1444 0001343  96.6159 263.4986 15.08791592107358,6918.028,95.441,540.822,538.964,0.0
53746.0,STARLINK-4589,PAYLOAD,2024-08-14 12:20:19,15.08837468,0.0001218,53.2178,312.766,87.4339,272.6793,0.0016312,0.00025766,0.0,0 STARLINK-4589,1 53746U 22107AY  24227.51411580  .00025766  00000-0  16312-2 0  9990,2 53746  53.2178 312.7660 0001218  87.4339 272.6793 15.08837468107435,6917.888,95.438,540.596,538.911,0.0
53746.0,STARLINK-4589,PAYLOAD,2024-08-14 17:06:28,15.08857671,0.0001424,53.2177,311.8735,75.1593,284.9557,0.0018272,0.00028926,0.0,0 STARLINK-4589,1 53746U 22107AY  24227.71283238  .00028926  00000-0  18272-2 0  9997,2 53746  53.2177 311.8735 0001424  75.1593 284.9557 15.08857671107467,6917.826,95.436,540.676,538.706,0.0
53746.0,STARLINK-4589,PAYLOAD,2024-08-15 12:11:05,15.0887955,0.0001115,53.2173,308.308,77.7542,282.3574,0.002232,0.00035452,0.0,0 STARLINK-4589,1 53746U 22107AY  24228.50770302  .00035452  00000-0  22320-2 0  9999,2 53746  53.2173 308.3080 0001115  77.7542 282.3574 15.08879550108367,6917.76,95.435,540.396,538.853,0.0
53746.0,STARLINK-4589,PAYLOAD,2024-08-16 10:26:29,15.08869032,0.0001393,53.2173,304.1434,109.4526,250.6617,0.0017172,0.00027169,0.0,0 STARLINK-4589,1 53746U 22107AY  24229.43505854  .00027169  00000-0  17172-2 0  9995,2 53746  53.2173 304.1434 0001393 109.4526 250.6617 15.08869032107726,6917.792,95.436,540.62,538.693,0.0
53746.0,STARLINK-4589,PAYLOAD,2024-08-17 08:41:52,15.08842276,0.00022,53.2164,299.9796,122.8714,237.249,0.00056972,8.791e-05,0.0,0 STARLINK-4589,1 53746U 22107AY  24230.36241826  .00008791  00000-0  56972-3 0  9997,2 53746  53.2164 299.9796 0002200 122.8714 237.2490 15.08842276107860,6917.873,95.437,541.26,538.216,0.0
53746.0,STARLINK-4589,PAYLOAD,2024-08-17 13:28:02,15.08843521,0.0001434,53.2159,299.0873,78.1623,281.953,7.9763e-05,9.82e-06,0.0,0 STARLINK-4589,1 53746U 22107AY  24230.56114039  .00000982  00000-0  79763-4 0  9992,2 53746  53.2159 299.0873 0001434  78.1623 281.9530 15.08843521107899,6917.87,95.437,540.727,538.743,0.0
53746.0,STARLINK-4589,PAYLOAD,2024-08-18 05:21:54,15.08835987,0.0001596,53.2163,296.1148,93.5637,266.5538,0.00054369,8.374e-05,0.0,0 STARLINK-4589,1 53746U 22107AY  24231.22354400  .00008374  00000-0  54369-3 0  9991,2 53746  53.2163 296.1148 0001596  93.5637 266.5538 15.08835987108774,6917.893,95.438,540.862,538.654,0.0
53746.0,STARLINK-4589,PAYLOAD,2024-08-18 11:43:26,15.08846823,0.0001638,53.2165,294.9256,92.9109,267.2071,0.00066123,0.00010253,0.0,0 STARLINK-4589,1 53746U 22107AY  24231.48849985  .00010253  00000-0  66123-3 0  9996,2 53746  53.2165 294.9256 0001638  92.9109 267.2071 15.08846823108812,6917.86,95.437,540.858,538.591,0.0
53746.0,STARLINK-4589,PAYLOAD,2024-08-19 03:37:17,15.08840657,0.0001621,53.2164,291.9535,91.5408,268.577,0.00011543,1.55e-05,0.0,0 STARLINK-4589,1 53746U 22107AY  24232.15090080  .00001550  00000-0  11543-3 0  9991,2 53746  53.2164 291.9535 0001621  91.5408 268.5770 15.08840657108131,6917.878,95.438,540.865,538.622,0.0
53746.0,STARLINK-4589,PAYLOAD,2024-08-19 09:58:50,15.08837552,0.0001623,53.2158,290.7616,91.5799,268.5379,4.6544e-05,4.53e-06,0.0,0 STARLINK-4589,1 53746U 22107AY  24232.41586265  .00000453  00000-0  46544-4 0  9996,2 53746  53.2158 290.7616 0001623  91.5799 268.5379 15.08837552108951,6917.888,95.438,540.876,538.63,0.0
53746.0,STARLINK-4589,PAYLOAD,2024-08-20 08:14:14,15.08843469,0.0001396,53.215,286.5982,99.5079,260.6071,0.00021626,3.156e-05,0.0,0 STARLINK-4589,1 53746U 22107AY  24233.34322119  .00003156  00000-0  21626-3 0  9991,2 53746  53.2150 286.5982 0001396  99.5079 260.6071 15.08843469108314,6917.87,95.437,540.701,538.769,0.0
53746.0,STARLINK-4589,PAYLOAD,2024-08-21 09:40:24,15.08843573,0.0001508,53.2146,281.84,96.0272,264.0892,0.00021782,3.181e-05,0.0,0 STARLINK-4589,1 53746U 22107AY  24234.40306301  .00003181  00000-0  21782-3 0  9995,2 53746  53.2146 281.8400 0001508  96.0272 264.0892 15.08843573108476,6917.869,95.437,540.778,538.691,0.0
53746.0,STARLINK-4589,PAYLOAD,2024-08-21 20:48:06,15.08843918,0.0001627,53.2149,279.7612,79.9656,280.152,0.00017486,2.496e-05,0.0,0 STARLINK-4589,1 53746U 22107AY  24234.86674403  .00002496  00000-0  17486-3 0  9990,2 53746  53.2149 279.7612 0001627  79.9656 280.1520 15.08843918109323,6917.868,95.437,540.859,538.608,0.0
